OBJECT_NAME,OBJECT_ID,EPOCH,MEAN_MOTION,ECCENTRICITY,INCLINATION,RA_OF_ASC_NODE,ARG_OF_PERICENTER,MEAN_ANOMALY,EPHEMERIS_TYPE,CLASSIFICATION_TYPE,NORAD_CAT_ID,ELEMENT_SET_NO,REV_AT_EPOCH,BSTAR,MEAN_MOTION_DOT,MEAN_MOTION_DDOT
IRIDIUM 33 DEB,1997-051CV,2024-06-01T08:45:11.693952,14.6936258,0.0015457,86.3714,282.244,131.2585,282.5819,0,U,34086,999,988,0.0035208,0.00020906,0
IRIDIUM 33 DEB,1997-051CX,2024-06-01T10:16:50.334240,14.60436115,0.0009005,86.3937,280.8657,28.8237,37.4121,0,U,34088,999,80495,0.0023221,0.00011281,0
IRIDIUM 33 DEB,1997-051DA,2024-06-01T11:42:26.227584,14.46709252,0.0065573,86.3633,314.767,67.2568,293.5546,0,U,34091,999,79706,0.0023546,8.765e-05,0
IRIDIUM 33 DEB,1997-051DG,2024-06-01T06:03:30.598272,14.26986795,0.0089205,86.2039,246.7913,14.8573,345.5207,0,U,34097,999,79116,0.0010433,2.664e-05,0
IRIDIUM 33 DEB,1997-051DM,2024-06-01T14:10:18.911424,14.56544085,0.0068502,86.3675,350.6198,270.8893,148.2003,0,U,34102,999,79261,0.0036227,0.0001669,0
IRIDIUM 33 DEB,1997-051DR,2024-06-01T06:04:57.465696,14.74906977,0.0010149,86.3549,232.3436,70.005,354.1206,0,U,34106,999,80824,0.0026496,0.00017845,0
IRIDIUM 33 DEB,1997-051DS,2024-06-01T14:54:02.786976,14.85206763,0.0009385,86.3723,239.8971,98.2882,1.9965,0,U,34107,999,80914,0.0026078,0.00022436,0
IRIDIUM 33 DEB,1997-051DY,2024-06-01T05:08:46.370112,14.35204228,0.006217,86.2182,220.247,128.4064,232.2738,0,U,34145,999,79599,0.0012501,3.672e-05,0
IRIDIUM 33 DEB,1997-051DZ,2024-06-01T07:20:27.613824,14.42222646,0.0029991,86.2875,235.5323,280.2729,151.3136,0,U,34146,999,80022,0.00079121,2.639e-05,0
IRIDIUM 33 DEB,1997-051EN,2024-06-01T10:06:42.708096,14.35720468,0.0027937,86.3497,286.1061,323.0115,36.9155,0,U,34159,999,79925,0.000507,1.489e-05,0
IRIDIUM 33 DEB,1997-051ES,2024-06-01T07:36:02.544768,14.42540602,0.0021921,86.3301,244.887,186.9992,239.1369,0,U,34350,999,80219,0.00046932,1.58e-05,0
IRIDIUM 33 DEB,1997-051FA,2024-06-01T10:42:11.236896,14.9143221,0.002278,86.3152,212.469,199.8855,219.4337,0,U,34358,999,80720,0.0048669,0.00049165,0
IRIDIUM 33 DEB,1997-051FJ,2024-06-01T11:14:57.020928,14.44682296,0.0022056,86.3703,290.7468,206.5214,225.922,0,U,34366,999,80078,0.0016077,5.607e-05,0
IRIDIUM 33 DEB,1997-051FT,2024-06-01T04:26:17.208096,14.15844554,0.0107378,86.4324,48.0406,102.4014,49.8767,0,U,34375,999,78787,0.00058251,1.23e-05,0
IRIDIUM 33 DEB,1997-051FU,2024-06-01T07:51:38.284416,14.47432805,0.0032204,86.303,254.8881,258.8541,100.9041,0,U,34376,999,79869,0.0020509,7.595e-05,0
IRIDIUM 33 DEB,1997-051GB,2024-06-01T08:01:15.724128,14.66185375,0.0013762,86.4037,263.6453,284.1874,129.6193,0,U,34486,999,80709,0.0019195,0.00010601,0
IRIDIUM 33 DEB,1997-051GC,2024-05-30T06:05:53.237760,14.41589173,0.0031731,86.3446,253.6802,182.055,207.4954,0,U,34487,999,80154,0.00037911,1.26e-05,0
IRIDIUM 33 DEB,1997-051GD,2024-06-01T08:31:35.836896,14.72800951,0.0018815,86.3435,207.9238,202.4794,157.5601,0,U,34488,999,80882,0.001904,0.00012236,0
IRIDIUM 33 DEB,1997-051GE,2024-06-01T11:53:07.878912,15.46156755,0.00284,86.3636,322.2297,260.9792,98.8251,0,U,34489,999,79898,0.018247,0.00989186,0
IRIDIUM 33 DEB,1997-051GH,2024-05-29T02:13:15.843072,14.03685177,0.025654,86.493,197.7224,224.6606,163.4763,0,U,34492,999,77100,0.0038995,8.228e-05,0
IRIDIUM 33 DEB,1997-051GN,2024-05-30T08:51:32.080320,14.23746479,0.0084526,86.2763,291.4196,343.9805,44.2025,0,U,34497,999,79017,0.00089162,2.13e-05,0
IRIDIUM 33 DEB,1997-051GU,2024-06-01T12:49:58.687392,14.86378141,0.0009545,86.3087,174.2729,18.0255,342.1306,0,U,34503,999,81093,0.0035202,0.00031192,0
IRIDIUM 33 DEB,1997-051GZ,2024-06-01T11:30:54.662112,14.31244235,0.007109,86.3745,338.3282,198.2025,161.6624,0,U,34508,999,79287,0.0015878,4.332e-05,0
IRIDIUM 33 DEB,1997-051HC,2024-06-01T00:15:13.045824,14.89070894,0.0019951,86.3679,266.779,274.6809,137.7511,0,U,34511,999,80462,0.0068977,0.00065773,0
IRIDIUM 33 DEB,1997-051HN,2024-06-01T08:56:37.964832,14.52207037,0.0004858,86.3818,274.6069,15.7308,344.4048,0,U,34521,999,80320,0.0014164,5.766e-05,0
IRIDIUM 33 DEB,1997-051HR,2024-06-01T12:05:59.327232,15.07081572,0.0020152,86.3244,229.7562,247.9273,111.9823,0,U,34524,999,80585,0.0064124,0.00097817,0
IRIDIUM 33 DEB,1997-051HS,2024-06-01T09:36:17.388000,14.39998624,0.0006333,86.372,284.9514,123.2117,297.8586,0,U,34525,999,80029,0.00055331,1.761e-05,0
IRIDIUM 33 DEB,1997-051HW,2024-06-01T08:27:48.637728,14.39384524,0.0004189,86.3632,273.5196,225.5108,134.5749,0,U,34529,999,80091,0.00032086,1.017e-05,0
IRIDIUM 33 DEB,1997-051JF,2024-06-01T12:30:40.885920,14.36673149,0.0038802,86.2774,249.3164,3.021,9.8574,0,U,34538,999,79708,0.0011395,3.402e-05,0
IRIDIUM 33 DEB,1997-051JH,2024-06-01T14:46:50.875968,14.61051183,0.0019578,86.3238,200.0166,302.0526,215.2723,0,U,34540,999,80816,0.00097764,4.833e-05,0
