IRIDIUM 33 DEB          
1 34086U 97051CV  24153.36471868  .00020906  00000+0  35208-2 0  9997
2 34086  86.3714 282.2440 0015457 131.2585 282.5819 14.69362580  9885
IRIDIUM 33 DEB          
1 34088U 97051CX  24153.42836035  .00011281  00000+0  23221-2 0  9995
2 34088  86.3937 280.8657 0009005  28.8237  37.4121 14.60436115804956
IRIDIUM 33 DEB          
1 34091U 97051DA  24153.48780356  .00008765  00000+0  23546-2 0  9992
2 34091  86.3633 314.7670 0065573  67.2568 293.5546 14.46709252797069
IRIDIUM 33 DEB          
1 34097U 97051DG  24153.25243748  .00002664  00000+0  10433-2 0  9995
2 34097  86.2039 246.7913 0089205  14.8573 345.5207 14.26986795791164
IRIDIUM 33 DEB          
1 34102U 97051DM  24153.59049666  .00016690  00000+0  36227-2 0  9995
2 34102  86.3675 350.6198 0068502 270.8893 148.2003 14.56544085792612
IRIDIUM 33 DEB          
1 34106U 97051DR  24153.25344289  .00017845  00000+0  26496-2 0  9991
2 34106  86.3549 232.3436 0010149  70.0050 354.1206 14.74906977808248
IRIDIUM 33 DEB          
1 34107U 97051DS  24153.62086559  .00022436  00000+0  26078-2 0  9994
2 34107  86.3723 239.8971 0009385  98.2882   1.9965 14.85206763809141
IRIDIUM 33 DEB          
1 34145U 97051DY  24153.21442558  .00003672  00000+0  12501-2 0  9993
2 34145  86.2182 220.2470 0062170 128.4064 232.2738 14.35204228795991
IRIDIUM 33 DEB          
1 34146U 97051DZ  24153.30587516  .00002639  00000+0  79121-3 0  9992
2 34146  86.2875 235.5323 0029991 280.2729 151.3136 14.42222646800224
IRIDIUM 33 DEB          
1 34159U 97051EN  24153.42132764  .00001489  00000+0  50700-3 0  9994
2 34159  86.3497 286.1061 0027937 323.0115  36.9155 14.35720468799259
IRIDIUM 33 DEB          
1 34350U 97051ES  24153.31669612  .00001580  00000+0  46932-3 0  9996
2 34350  86.3301 244.8870 0021921 186.9992 239.1369 14.42540602802191
IRIDIUM 33 DEB          
1 34358U 97051FA  24153.44596339  .00049165  00000+0  48669-2 0  9992
2 34358  86.3152 212.4690 0022780 199.8855 219.4337 14.91432210807201
IRIDIUM 33 DEB          
1 34366U 97051FJ  24153.46871552  .00005607  00000+0  16077-2 0  9997
2 34366  86.3703 290.7468 0022056 206.5214 225.9220 14.44682296800783
IRIDIUM 33 DEB          
1 34375U 97051FT  24153.18492139  .00001230  00000+0  58251-3 0  9995
2 34375  86.4324  48.0406 0107378 102.4014  49.8767 14.15844554787870
IRIDIUM 33 DEB          
1 34376U 97051FU  24153.32752644  .00007595  00000+0  20509-2 0  9996
2 34376  86.3030 254.8881 0032204 258.8541 100.9041 14.47432805798697
IRIDIUM 33 DEB          
1 34486U 97051GB  24153.33420977  .00010601  00000+0  19195-2 0  9991
2 34486  86.4037 263.6453 0013762 284.1874 129.6193 14.66185375807098
IRIDIUM 33 DEB          
1 34487U 97051GC  24151.25408840  .00001260  00000+0  37911-3 0  9994
2 34487  86.3446 253.6802 0031731 182.0550 207.4954 14.41589173801543
IRIDIUM 33 DEB          
1 34488U 97051GD  24153.35527589  .00012236  00000+0  19040-2 0  9997
2 34488  86.3435 207.9238 0018815 202.4794 157.5601 14.72800951808828
IRIDIUM 33 DEB          
1 34489U 97051GE  24153.49523008  .00989186  00000+0  18247-1 0  9999
2 34489  86.3636 322.2297 0028400 260.9792  98.8251 15.46156755798987
IRIDIUM 33 DEB          
1 34492U 97051GH  24150.09254448  .00008228  00000+0  38995-2 0  9997
2 34492  86.4930 197.7224 0256540 224.6606 163.4763 14.03685177771001
IRIDIUM 33 DEB          
1 34497U 97051GN  24151.36912130  .00002130  00000+0  89162-3 0  9991
2 34497  86.2763 291.4196 0084526 343.9805  44.2025 14.23746479790178
IRIDIUM 33 DEB          
1 34503U 97051GU  24153.53470703  .00031192  00000+0  35202-2 0  9990
2 34503  86.3087 174.2729 0009545  18.0255 342.1306 14.86378141810938
IRIDIUM 33 DEB          
1 34508U 97051GZ  24153.47979933  .00004332  00000+0  15878-2 0  9990
2 34508  86.3745 338.3282 0071090 198.2025 161.6624 14.31244235792876
IRIDIUM 33 DEB          
1 34511U 97051HC  24153.01056766  .00065773  00000+0  68977-2 0  9998
2 34511  86.3679 266.7790 0019951 274.6809 137.7511 14.89070894804628
IRIDIUM 33 DEB          
1 34521U 97051HN  24153.37266163  .00005766  00000+0  14164-2 0  9997
2 34521  86.3818 274.6069 0004858  15.7308 344.4048 14.52207037803205
IRIDIUM 33 DEB          
1 34524U 97051HR  24153.50415888  .00097817  00000+0  64124-2 0  9994
2 34524  86.3244 229.7562 0020152 247.9273 111.9823 15.07081572805851
IRIDIUM 33 DEB          
1 34525U 97051HS  24153.40020125  .00001761  00000+0  55331-3 0  9994
2 34525  86.3720 284.9514 0006333 123.2117 297.8586 14.39998624800291
IRIDIUM 33 DEB          
1 34529U 97051HW  24153.35264627  .00001017  00000+0  32086-3 0  9995
2 34529  86.3632 273.5196 0004189 225.5108 134.5749 14.39384524800915
IRIDIUM 33 DEB          
1 34538U 97051JF  24153.52130655  .00003402  00000+0  11395-2 0  9996
2 34538  86.2774 249.3164 0038802   3.0210   9.8574 14.36673149797083
IRIDIUM 33 DEB          
1 34540U 97051JH  24153.61586662  .00004833  00000+0  97764-3 0  9996
2 34540  86.3238 200.0166 0019578 302.0526 215.2723 14.61051183808166
